*******************************************************************************
JPL/HORIZONS                20 Massalia (A852 SA)          2020-Jun-20 07:53:26
Rec #:      20 (+COV) Soln.date: 2020-May-20_00:56:00   # obs: 2506 (1856-2020)
 
IAU76/J2000 helio. ecliptic osc. elements (au, days, deg., period=Julian yrs):
 
  EPOCH=  2451549.5 ! 2000-Jan-06.00 (TDB)         Residual RMS= .23759
   EC= .1423998471762069   QR= 2.066227384168822   TP= 2451321.4909227928
   OM= 206.60220848053     W=  255.5692197880718   IN= .7057159992632623
   A= 2.409313218246778    MA= 60.09195257965743   ADIST= 2.752399052324735
   PER= 3.7398             N= .263550696           ANGMOM= .026428929
   DAN= 2.44731            DDN= 2.27956            L= 102.1703893
   B= -.6834492            MOID= 1.08302999        TP= 1999-May-22.9909227928
 
Asteroid physical parameters (km, seconds, rotational period in hours):
   GM= n.a.                RAD= 67.84              ROTPER= 8.098
   H= 6.5                  G= .250                 B-V= .854
                           ALBEDO= .241            STYP= S
 
ASTEROID comments: 
1: soln ref.= JPL#106, OCC=0
2: source=ORB
*******************************************************************************
 
 
*******************************************************************************
Ephemeris / WWW_USER Sat Jun 20 07:53:26 2020 Pasadena, USA      / Horizons
*******************************************************************************
Target body name: 20 Massalia (A852 SA)           {source: JPL#106}
Center body name: Solar System Barycenter (0)     {source: DE431}
Center-site name: BODY CENTER
*******************************************************************************
Start time      : A.D. 1969-Jun-28 00:00:00.0000 TDB
Stop  time      : A.D. 2071-May-04 00:00:00.0000 TDB
Step-size       : 7200 minutes
*******************************************************************************
Center geodetic : 0.00000000,0.00000000,0.0000000 {E-lon(deg),Lat(deg),Alt(km)}
Center cylindric: 0.00000000,0.00000000,0.0000000 {E-lon(deg),Dxy(km),Dz(km)}
Center radii    : (undefined)                                                  
Small perturbers: Yes                             {source: SB431-N16}
Output units    : AU-D
Output type     : GEOMETRIC cartesian states
Output format   : 2 (position and velocity)
Reference frame : Ecliptic of J2000.0
*******************************************************************************
Initial IAU76/J2000 heliocentric ecliptic osculating elements (au, days, deg.):
  EPOCH=  2451549.5 ! 2000-Jan-06.00 (TDB)         Residual RMS= .23759        
   EC= .1423998471762069   QR= 2.066227384168822   TP= 2451321.4909227928      
   OM= 206.60220848053     W=  255.5692197880718   IN= .7057159992632623       
  Equivalent ICRF heliocentric equatorial cartesian coordinates (au, au/d):
   X=-2.276731461347986E+00  Y= 9.315460206970638E-02  Z= 2.555206145597980E-02
  VX=-2.029106716643030E-03 VY=-1.061740709862020E-02 VZ=-4.477092873083958E-03
Asteroid physical parameters (km, seconds, rotational period in hours):        
   GM= n.a.                RAD= 67.84              ROTPER= 8.098               
   H= 6.5                  G= .250                 B-V= .854                   
                           ALBEDO= .241            STYP= S                     
*******************************************************************************
            JDTDB,            Calendar Date (TDB),        delta-T,                      X,                      Y,                      Z,                     VX,                     VY,                     VZ,
******************************************************************************************************************************************************************************************************************
$$SOE
2448940.500000000, A.D. 1992-Nov-14 00:00:00.0000,      59.182738, -2.123536955012896E+00, -1.259142755228719E+00,  1.925269604883051E-03,  4.137596435718420E-03, -9.960952361424911E-03,  1.320181718213349E-04,
2448945.500000000, A.D. 1992-Nov-19 00:00:00.0000,      59.182836, -2.102332531074129E+00, -1.308635343797064E+00,  2.584827594684795E-03,  4.343511405543067E-03, -9.835472794093737E-03,  1.317946557826796E-04,
2448950.500000000, A.D. 1992-Nov-24 00:00:00.0000,      59.182944, -2.080108477626145E+00, -1.357491485935441E+00,  3.243113525015605E-03,  4.545444487006541E-03, -9.706394801795798E-03,  1.315095568421977E-04,
2448955.500000000, A.D. 1992-Nov-29 00:00:00.0000,      59.183061, -2.056884757624266E+00, -1.405693502587359E+00,  3.899822606029931E-03,  4.743374822746343E-03, -9.573843187711387E-03,  1.311641233253787E-04,
2448960.500000000, A.D. 1992-Dec-04 00:00:00.0000,      59.183183, -2.032681430249630E+00, -1.453224332333348E+00,  4.554656265299241E-03,  4.937284748073585E-03, -9.437940200458926E-03,  1.307595936536574E-04,
2448965.500000000, A.D. 1992-Dec-09 00:00:00.0000,      59.183311, -2.007518635416562E+00, -1.500067518580143E+00,  5.207322095070122E-03,  5.127159603696922E-03, -9.298805520284588E-03,  1.302971950730057E-04,
2448970.500000000, A.D. 1992-Dec-14 00:00:00.0000,      59.183443, -1.981416579201098E+00, -1.546207196700826E+00,  5.857533793466910E-03,  5.312987554545158E-03, -9.156556253081146E-03,  1.297781425109947E-04,
2448975.500000000, A.D. 1992-Dec-19 00:00:00.0000,      59.183581, -1.954395520159634E+00, -1.591628081162478E+00,  6.505011100373651E-03,  5.494759414961578E-03, -9.011306931214684E-03,  1.292036375936798E-04,
2448980.500000000, A.D. 1992-Dec-24 00:00:00.0000,      59.183724, -1.926475756504968E+00, -1.636315452673299E+00,  7.149479728793449E-03,  5.672468480594387E-03, -8.863169520380890E-03,  1.285748678151582E-04,
2448985.500000000, A.D. 1992-Dec-29 00:00:00.0000,      59.183869, -1.897677614105766E+00, -1.680255145377983E+00,  7.790671292368136E-03,  5.846110367143949E-03, -8.712253431988616E-03,  1.278930058261022E-04,
2448990.500000000, A.D. 1993-Jan-03 00:00:00.0000,      59.184014, -1.868021435275163E+00, -1.723433534128166E+00,  8.428323229549100E-03,  6.015682855949032E-03, -8.558665540762745E-03,  1.271592087981236E-04,
2448995.500000000, A.D. 1993-Jan-08 00:00:00.0000,      59.184157, -1.837527568314761E+00, -1.765837521853437E+00,  9.062178724715632E-03,  6.181185746182147E-03, -8.402510207318631E-03,  1.263746178361964E-04,
2449000.500000000, A.D. 1993-Jan-13 00:00:00.0000,      59.184299, -1.806216357781846E+00, -1.807454527056911E+00,  9.691986626473767E-03,  6.342620713314882E-03, -8.243889305340096E-03,  1.255403574425488E-04,
2449005.500000000, A.D. 1993-Jan-18 00:00:00.0000,      59.184440, -1.774108135449175E+00, -1.848272471457151E+00,  1.031750136345028E-02,  6.499991173591545E-03, -8.082902252841740E-03,  1.246575350525313E-04,
2449010.500000000, A.D. 1993-Jan-23 00:00:00.0000,      59.184579, -1.741223211927652E+00, -1.888279767795447E+00,  1.093848285797358E-02,  6.653302154389921E-03, -7.919646046970931E-03,  1.237272406556844E-04,
2449015.500000000, A.D. 1993-Jan-28 00:00:00.0000,      59.184714, -1.707581868922605E+00, -1.927465307824988E+00,  1.155469643807433E-02,  6.802560170410196E-03, -7.754215301888086E-03,  1.227505465002841E-04,
2449020.500000000, A.D. 1993-Feb-02 00:00:00.0000,      59.184842, -1.673204352094704E+00, -1.965818450496341E+00,  1.216591274819508E-02,  6.947773105610022E-03, -7.586702289357848E-03,  1.217285068717904E-04,
2449025.500000000, A.D. 1993-Feb-07 00:00:00.0000,      59.184961, -1.638110864497110E+00, -2.003329010352005E+00,  1.277190765895929E-02,  7.088950100752368E-03, -7.417196981739429E-03,  1.206621579359468E-04,
2449030.500000000, A.D. 1993-Feb-12 00:00:00.0000,      59.185074, -1.602321560561200E+00, -2.039987246141308E+00,  1.337246217630440E-02,  7.226101446397691E-03, -7.245787097078031E-03,  1.195525176410895E-04,
2449035.500000000, A.D. 1993-Feb-17 00:00:00.0000,      59.185180, -1.565856540604070E+00, -2.075783849665340E+00,  1.396736235026896E-02,  7.359238481176397E-03, -7.072558145973384E-03,  1.184005856770802E-04,
2449040.500000000, A.D. 1993-Feb-22 00:00:00.0000,      59.185278, -1.528735845831701E+00, -2.110709934859925E+00,  1.455639918370308E-02,  7.488373495246252E-03, -6.897593479869474E-03,  1.172073434828317E-04,
2449045.500000000, A.D. 1993-Feb-27 00:00:00.0000,      59.185366, -1.490979453811909E+00, -2.144757027122994E+00,  1.513936854109219E-02,  7.613519638909333E-03, -6.720974340500968E-03,  1.159737542795854E-04,
2449050.500000000, A.D. 1993-Mar-04 00:00:00.0000,      59.185442, -1.452607274391613E+00, -2.177917052892167E+00,  1.571607105755261E-02,  7.734690836215887E-03, -6.542779910565978E-03,  1.147007631040956E-04,
2449055.500000000, A.D. 1993-Mar-09 00:00:00.0000,      59.185506, -1.413639146034558E+00, -2.210182329479024E+00,  1.628631204801652E-02,  7.851901703093966E-03, -6.363087365718326E-03,  1.133892968573255E-04,
2449060.500000000, A.D. 1993-Mar-14 00:00:00.0000,      59.185559, -1.374094832557891E+00, -2.241545555166176E+00,  1.684990141677071E-02,  7.965167469643366E-03, -6.181971927621587E-03,  1.120402644012498E-04,
2449065.500000000, A.D. 1993-Mar-19 00:00:00.0000,      59.185602, -1.333994020247087E+00, -2.271999799571314E+00,  1.740665356762762E-02,  8.074503906496265E-03, -5.999506917625470E-03,  1.106545567148242E-04,
2449070.500000000, A.D. 1993-Mar-24 00:00:00.0000,      59.185634, -1.293356315329005E+00, -2.301538494280583E+00,  1.795638731500629E-02,  8.179927255194643E-03, -5.815763810784255E-03,  1.092330470996533E-04,
2449075.500000000, A.D. 1993-Mar-29 00:00:00.0000,      59.185653, -1.252201241783203E+00, -2.330155423752557E+00,  1.849892579614069E-02,  8.281454162484384E-03, -5.630812290055602E-03,  1.077765914220553E-04,
